{
  "links" : {
    "next" : "https://api.nasa.gov/neo/rest/v1/feed?start_date=2001-12-16&end_date=2001-12-16&detailed=true&api_key=t0TVs3DtDT2H8Oy2Zy8m2eVrNsAVKAexjcZXUckd",
    "prev" : "https://api.nasa.gov/neo/rest/v1/feed?start_date=2001-12-14&end_date=2001-12-14&detailed=true&api_key=t0TVs3DtDT2H8Oy2Zy8m2eVrNsAVKAexjcZXUckd",
    "self" : "https://api.nasa.gov/neo/rest/v1/feed?start_date=2001-12-15&end_date=2001-12-15&detailed=true&api_key=t0TVs3DtDT2H8Oy2Zy8m2eVrNsAVKAexjcZXUckd"
  },
  "element_count" : 3,
  "near_earth_objects" : {
    "2001-12-15" : [ {
      "links" : {
        "self" : "https://api.nasa.gov/neo/rest/v1/neo/3102709?api_key=t0TVs3DtDT2H8Oy2Zy8m2eVrNsAVKAexjcZXUckd"
      },
      "neo_reference_id" : "3102709",
      "name" : "(2001 YN2)",
      "nasa_jpl_url" : "http://ssd.jpl.nasa.gov/sbdb.cgi?sstr=3102709",
      "absolute_magnitude_h" : 25.4,
      "estimated_diameter" : {
        "kilometers" : {
          "estimated_diameter_min" : 0.022108281,
          "estimated_diameter_max" : 0.0494356193
        },
        "meters" : {
          "estimated_diameter_min" : 22.1082810359,
          "estimated_diameter_max" : 49.435619262
        },
        "miles" : {
          "estimated_diameter_min" : 0.0137374447,
          "estimated_diameter_max" : 0.0307178602
        },
        "feet" : {
          "estimated_diameter_min" : 72.5337327539,
          "estimated_diameter_max" : 162.1903570994
        }
      },
      "is_potentially_hazardous_asteroid" : false,
      "close_approach_data" : [ {
        "close_approach_date" : "2001-12-15",
        "epoch_date_close_approach" : 1008403200000,
        "relative_velocity" : {
          "kilometers_per_second" : "18.8591045343",
          "kilometers_per_hour" : "67892.7763236373",
          "miles_per_hour" : "42185.9309328734"
        },
        "miss_distance" : {
          "astronomical" : "0.0089106901",
          "lunar" : "3.4662585258",
          "kilometers" : "1333020.375",
          "miles" : "828300.4375"
        },
        "orbiting_body" : "Earth"
      } ],
      "orbital_data" : {
        "orbit_id" : "13",
        "orbit_determination_date" : "2017-04-06 09:15:40",
        "orbit_uncertainty" : "8",
        "minimum_orbit_intersection" : "3.07214E-5",
        "jupiter_tisserand_invariant" : "3.045",
        "epoch_osculation" : "2452268.5",
        "eccentricity" : ".7152837530564765",
        "semi_major_axis" : "2.507280005309978",
        "inclination" : "1.628729702931391",
        "ascending_node_longitude" : "82.60908716479733",
        "orbital_period" : "1450.115794555424",
        "perihelion_distance" : ".7138633531483944",
        "perihelion_argument" : "289.8775991141003",
        "aphelion_distance" : "4.300696657471561",
        "perihelion_time" : "2452217.294031614257",
        "mean_anomaly" : "12.71219076992332",
        "mean_motion" : ".2482560367604082",
        "equinox" : "J2000"
      }
    }, {
      "links" : {
        "self" : "https://api.nasa.gov/neo/rest/v1/neo/2011054?api_key=t0TVs3DtDT2H8Oy2Zy8m2eVrNsAVKAexjcZXUckd"
      },
      "neo_reference_id" : "2011054",
      "name" : "11054 (1991 FA)",
      "nasa_jpl_url" : "http://ssd.jpl.nasa.gov/sbdb.cgi?sstr=2011054",
      "absolute_magnitude_h" : 17.0,
      "estimated_diameter" : {
        "kilometers" : {
          "estimated_diameter_min" : 1.0581688593,
          "estimated_diameter_max" : 2.3661375011
        },
        "meters" : {
          "estimated_diameter_min" : 1058.1688593312,
          "estimated_diameter_max" : 2366.137501138
        },
        "miles" : {
          "estimated_diameter_min" : 0.6575154423,
          "estimated_diameter_max" : 1.4702492252
        },
        "feet" : {
          "estimated_diameter_min" : 3471.6827204482,
          "estimated_diameter_max" : 7762.9185592335
        }
      },
      "is_potentially_hazardous_asteroid" : false,
      "close_approach_data" : [ {
        "close_approach_date" : "2001-12-15",
        "epoch_date_close_approach" : 1008403200000,
        "relative_velocity" : {
          "kilometers_per_second" : "7.0410064758",
          "kilometers_per_hour" : "25347.6233129727",
          "miles_per_hour" : "15750.0273857746"
        },
        "miss_distance" : {
          "astronomical" : "0.2020406939",
          "lunar" : "78.5938262939",
          "kilometers" : "30224856",
          "miles" : "18780856"
        },
        "orbiting_body" : "Earth"
      } ],
      "orbital_data" : {
        "orbit_id" : "238",
        "orbit_determination_date" : "2017-04-06 09:29:54",
        "orbit_uncertainty" : "0",
        "minimum_orbit_intersection" : ".121566",
        "jupiter_tisserand_invariant" : "3.731",
        "epoch_osculation" : "2458000.5",
        "eccentricity" : ".4475526628650752",
        "semi_major_axis" : "1.978364974708569",
        "inclination" : "3.077118482372984",
        "ascending_node_longitude" : "339.2162020819244",
        "orbital_period" : "1016.38453602488",
        "perihelion_distance" : "1.092942462158752",
        "perihelion_argument" : "92.11615678841143",
        "aphelion_distance" : "2.863787487258386",
        "perihelion_time" : "2458356.857306046309",
        "mean_anomaly" : "233.7794352141435",
        "mean_motion" : ".3541966521922639",
        "equinox" : "J2000"
      }
    }, {
      "links" : {
        "self" : "https://api.nasa.gov/neo/rest/v1/neo/2416151?api_key=t0TVs3DtDT2H8Oy2Zy8m2eVrNsAVKAexjcZXUckd"
      },
      "neo_reference_id" : "2416151",
      "name" : "416151 (2002 RQ25)",
      "nasa_jpl_url" : "http://ssd.jpl.nasa.gov/sbdb.cgi?sstr=2416151",
      "absolute_magnitude_h" : 20.7,
      "estimated_diameter" : {
        "kilometers" : {
          "estimated_diameter_min" : 0.1925550782,
          "estimated_diameter_max" : 0.4305662442
        },
        "meters" : {
          "estimated_diameter_min" : 192.5550781879,
          "estimated_diameter_max" : 430.566244241
        },
        "miles" : {
          "estimated_diameter_min" : 0.1196481415,
          "estimated_diameter_max" : 0.2675413778
        },
        "feet" : {
          "estimated_diameter_min" : 631.7424027221,
          "estimated_diameter_max" : 1412.6189567557
        }
      },
      "is_potentially_hazardous_asteroid" : true,
      "close_approach_data" : [ {
        "close_approach_date" : "2001-12-15",
        "epoch_date_close_approach" : 1008403200000,
        "relative_velocity" : {
          "kilometers_per_second" : "9.0057741702",
          "kilometers_per_hour" : "32420.7870128298",
          "miles_per_hour" : "20145.0162413886"
        },
        "miss_distance" : {
          "astronomical" : "0.4337207968",
          "lunar" : "168.7173919678",
          "kilometers" : "64883708",
          "miles" : "40316868"
        },
        "orbiting_body" : "Earth"
      } ],
      "orbital_data" : {
        "orbit_id" : "71",
        "orbit_determination_date" : "2017-04-06 09:21:23",
        "orbit_uncertainty" : "0",
        "minimum_orbit_intersection" : ".0498954",
        "jupiter_tisserand_invariant" : "5.558",
        "epoch_osculation" : "2458000.5",
        "eccentricity" : ".3063818124845617",
        "semi_major_axis" : "1.111709253422689",
        "inclination" : "4.576647731806468",
        "ascending_node_longitude" : "10.52002979988988",
        "orbital_period" : "428.1394607490399",
        "perihelion_distance" : ".7711017574031864",
        "perihelion_argument" : "225.6825395879664",
        "aphelion_distance" : "1.452316749442191",
        "perihelion_time" : "2457990.483688129053",
        "mean_anomaly" : "8.42219090768306",
        "mean_motion" : ".8408475111594985",
        "equinox" : "J2000"
      }
    } ]
  }
}